OBJECT_NAME,OBJECT_ID,EPOCH,MEAN_MOTION,ECCENTRICITY,INCLINATION,RA_OF_ASC_NODE,ARG_OF_PERICENTER,MEAN_ANOMALY,EPHEMERIS_TYPE,CLASSIFICATION_TYPE,NORAD_CAT_ID,ELEMENT_SET_NO,REV_AT_EPOCH,BSTAR,MEAN_MOTION_DOT,MEAN_MOTION_DDOT
HAWK-10B,2024-149CF,2026-06-15T03:55:32.232864,14.96510329,.0007043,97.6817,241.4668,98.3336,261.8685,0,U,60545,999,9968,.17209E-3,.1899E-4,0
ICEYE-X39,2024-149CG,2026-06-15T03:24:53.340192,14.99885943,.0005046,97.6766,243.1935,124.0450,236.1253,0,U,60546,999,9981,.25758E-3,.3135E-4,0
UMBRA-10,2024-149CH,2026-06-15T03:43:46.801920,15.17990785,.0000714,97.6985,253.3533,72.8235,287.3077,0,U,60547,999,10042,.61663E-3,.12476E-3,0
ICEYE-X33,2024-149CJ,2026-06-15T04:03:27.110592,15.00901628,.000242,97.7287,245.3249,73.0521,287.0968,0,U,60548,999,9990,.32305E-3,.4053E-4,0
ICEYE-X40,2024-149CK,2026-06-15T03:57:34.782624,14.97933456,.0006625,97.6816,242.6928,87.9411,272.2570,0,U,60549,999,9977,.2028E-3,.2333E-4,0
SATELIOT_1,2024-149CL,2026-06-15T03:45:07.642944,14.98059240,.0008398,97.6749,242.0873,86.7678,273.4505,0,U,60550,999,9976,.21207E-3,.2451E-4,0
BRO-14,2024-149CM,2026-06-15T04:32:05.985888,14.96173389,.000806,97.6876,242.0026,101.8327,258.3799,0,U,60551,999,9969,.5647E-4,.579E-5,0
SATELIOT_3,2024-149CN,2026-06-15T04:46:22.738656,14.98046230,.0005896,97.6818,242.9199,90.8957,269.2941,0,U,60552,999,9978,.1378E-3,.1571E-4,0
BRO-15,2024-149CP,2026-06-14T04:02:12.510240,14.96150646,.0009589,97.6808,240.6040,96.9395,263.2917,0,U,60553,999,9955,.11519E-3,.1241E-4,0
UM5-RIBAT,2024-149CQ,2026-06-15T03:20:11.880096,15.01066259,.0003611,97.6641,243.9670,64.9424,295.2175,0,U,60554,999,9988,.22534E-3,.2822E-4,0
UM5-EOSAT,2024-149CR,2026-06-15T02:32:41.276256,15.01515603,.0008744,97.6705,244.8662,120.7212,239.4875,0,U,60555,999,9990,.32254E-3,.4117E-4,0
LASARSAT,2024-247Q,2026-06-13T14:48:20.082240,15.46168743,.0008375,44.9751,282.2745,311.5212,48.4959,0,U,62391,999,8276,.65515E-3,.32689E-3,0
CROCUBE,2024-247T,2026-06-14T14:05:15.116064,15.48102542,.0008187,44.9722,274.1999,320.7516,39.2780,0,U,62394,999,8294,.65094E-3,.34757E-3,0
TEVEL2-4,2025-052D,2026-06-15T03:51:32.562720,15.34549992,.0004846,97.3913,62.5494,107.3580,252.8193,0,U,63213,999,6980,.44473E-3,.14823E-3,0
TEVEL2-5,2025-052E,2026-06-14T23:39:00.408096,15.34373171,.0004738,97.3911,62.3224,109.0151,251.1605,0,U,63214,999,6977,.5193E-3,.1723E-3,0
TEVEL2-6,2025-052F,2026-06-14T16:07:07.630176,15.34327721,.00046502,97.3918,61.9926,109.6687,250.5058,0,U,63215,999,6972,.53470218E-3,.17719E-3,0
TEVEL2-1,2025-052H,2026-06-14T23:03:26.975232,15.33805497,.0004673,97.3885,61.9091,117.9642,242.2074,0,U,63217,999,6975,.49853E-3,.16241E-3,0
TEVEL2-3,2025-052J,2026-06-14T22:55:51.055392,15.33859828,.0004639,97.3891,61.9254,117.9650,242.2062,0,U,63218,999,6975,.49801E-3,.16252E-3,0
TEVEL2-2,2025-052K,2026-06-14T23:03:55.177056,15.33813311,.0004646,97.3889,61.9119,118.6626,241.5084,0,U,63219,999,6975,.49665E-3,.16183E-3,0
TEVEL2-9,2025-052AD,2026-06-14T16:11:00.475584,15.31831968,.00075952,97.3950,61.0056,137.7538,222.4290,0,U,63237,999,6964,.49429071E-3,.1514E-3,0
TEVEL2-7,2025-052AE,2026-06-15T04:07:48.360000,15.31550920,.0007733,97.3951,61.4196,136.7836,223.4013,0,U,63238,999,6971,.42549E-3,.12905E-3,0
TEVEL2-8,2025-052AF,2026-06-15T04:19:39.532224,15.31535260,.0007744,97.3951,61.4046,137.5437,222.6405,0,U,63239,999,6971,.43385E-3,.13154E-3,0
FORESAIL-1 PRIME,2025-276DS,2026-06-15T03:38:26.750400,15.18685264,.0003939,97.4203,239.4592,109.0976,251.0685,0,U,66778,999,3009,.21912E-3,.4477E-4,0
