HAWK-10B                
1 60545U 24149CF  26166.16356751  .00001899  00000+0  17209-3 0  9993
2 60545  97.6817 241.4668 0007043  98.3336 261.8685 14.96510329 99685
ICEYE-X39               
1 60546U 24149CG  26166.14228403  .00003135  00000+0  25758-3 0  9997
2 60546  97.6766 243.1935 0005046 124.0450 236.1253 14.99885943 99811
UMBRA-10                
1 60547U 24149CH  26166.15540280  .00012476  00000+0  61663-3 0  9992
2 60547  97.6985 253.3533 0000714  72.8235 287.3077 15.17990785100424
ICEYE-X33               
1 60548U 24149CJ  26166.16906378  .00004053  00000+0  32305-3 0  9991
2 60548  97.7287 245.3249 0002420  73.0521 287.0968 15.00901628 99909
ICEYE-X40               
1 60549U 24149CK  26166.16498591  .00002333  00000+0  20280-3 0  9993
2 60549  97.6816 242.6928 0006625  87.9411 272.2570 14.97933456 99773
SATELIOT_1              
1 60550U 24149CL  26166.15633846  .00002451  00000+0  21207-3 0  9999
2 60550  97.6749 242.0873 0008398  86.7678 273.4505 14.98059240 99765
BRO-14                  
1 60551U 24149CM  26166.18895817  .00000579  00000+0  56470-4 0  9991
2 60551  97.6876 242.0026 0008060 101.8327 258.3799 14.96173389 99691
SATELIOT_3              
1 60552U 24149CN  26166.19887429  .00001571  00000+0  13780-3 0  9992
2 60552  97.6818 242.9199 0005896  90.8957 269.2941 14.98046230 99784
BRO-15                  
1 60553U 24149CP  26165.16820035  .00001241  00000+0  11519-3 0  9991
2 60553  97.6808 240.6040 0009589  96.9395 263.2917 14.96150646 99557
UM5-RIBAT               
1 60554U 24149CQ  26166.13902639  .00002822  00000+0  22534-3 0  9996
2 60554  97.6641 243.9670 0003611  64.9424 295.2175 15.01066259 99886
UM5-EOSAT               
1 60555U 24149CR  26166.10603329  .00004117  00000+0  32254-3 0  9997
2 60555  97.6705 244.8662 0008744 120.7212 239.4875 15.01515603 99909
LASARSAT                
1 62391U 24247Q   26164.61689910  .00032689  00000+0  65515-3 0  9991
2 62391  44.9751 282.2745 0008375 311.5212  48.4959 15.46168743 82768
CROCUBE                 
1 62394U 24247T   26165.58698051  .00034757  00000+0  65094-3 0  9997
2 62394  44.9722 274.1999 0008187 320.7516  39.2780 15.48102542 82947
TEVEL2-4                
1 63213U 25052D   26166.16079355  .00014823  00000+0  44473-3 0  9998
2 63213  97.3913  62.5494 0004846 107.3580 252.8193 15.34549992 69809
TEVEL2-5                
1 63214U 25052E   26165.98542139  .00017230  00000+0  51930-3 0  9994
2 63214  97.3911  62.3224 0004738 109.0151 251.1605 15.34373171 69770
TEVEL2-6                
1 63215U 25052F   26165.67161609  .00017719  00000+0  53470-3 0  9993
2 63215  97.3918  61.9926 0004650 109.6687 250.5058 15.34327721 69725
TEVEL2-1                
1 63217U 25052H   26165.96072888  .00016241  00000+0  49853-3 0  9996
2 63217  97.3885  61.9091 0004673 117.9642 242.2074 15.33805497 69750
TEVEL2-3                
1 63218U 25052J   26165.95545203  .00016252  00000+0  49801-3 0  9997
2 63218  97.3891  61.9254 0004639 117.9650 242.2062 15.33859828 69754
TEVEL2-2                
1 63219U 25052K   26165.96105529  .00016183  00000+0  49665-3 0  9993
2 63219  97.3889  61.9119 0004646 118.6626 241.5084 15.33813311 69754
TEVEL2-9                
1 63237U 25052AD  26165.67431106  .00015140  00000+0  49429-3 0  9994
2 63237  97.3950  61.0056 0007595 137.7538 222.4290 15.31831968 69645
TEVEL2-7                
1 63238U 25052AE  26166.17208750  .00012905  00000+0  42549-3 0  9990
2 63238  97.3951  61.4196 0007733 136.7836 223.4013 15.31550920 69718
TEVEL2-8                
1 63239U 25052AF  26166.18031866  .00013154  00000+0  43385-3 0  9990
2 63239  97.3951  61.4046 0007744 137.5437 222.6405 15.31535260 69717
FORESAIL-1 PRIME        
1 66778U 25276DS  26166.15169850  .00004477  00000+0  21912-3 0  9991
2 66778  97.4203 239.4592 0003939 109.0976 251.0685 15.18685264 30096
